OBJECT_NAME,OBJECT_ID,EPOCH,MEAN_MOTION,ECCENTRICITY,INCLINATION,RA_OF_ASC_NODE,ARG_OF_PERICENTER,MEAN_ANOMALY,EPHEMERIS_TYPE,CLASSIFICATION_TYPE,NORAD_CAT_ID,ELEMENT_SET_NO,REV_AT_EPOCH,BSTAR,MEAN_MOTION_DOT,MEAN_MOTION_DDOT
CORVUS BC4,2018-099K,2026-07-06T01:01:04.105632,15.12655290,.0006552,97.4056,229.4712,301.1954,58.8634,0,U,43767,999,41525,.28197E-3,.4869E-4,0
M2 PATHFINDER,2020-037E,2026-07-06T11:09:07.257312,15.04769609,.0013202,97.8157,18.9135,88.8510,271.4228,0,U,45727,999,32839,.17505E-3,.2408E-4,0
NETSAT-4,2020-068U,2026-07-06T13:33:47.867040,15.44544875,.0003783,97.8608,197.3712,229.6760,130.4157,0,U,46504,999,31876,.32615E-3,.15057E-3,0
NETSAT-3,2020-068V,2026-07-06T00:03:44.038656,15.43375304,.0002975,97.8655,194.9565,257.5330,102.5584,0,U,46505,999,31858,.46612E-3,.20739E-3,0
NETSAT-1,2020-068W,2026-07-06T13:31:10.720128,15.35106916,.0002682,97.8753,189.6618,315.7020,44.4007,0,U,46506,999,31827,.29724E-3,.10041E-3,0
NETSAT-2,2020-068X,2026-07-06T20:03:51.384096,15.46896368,.0001373,97.8621,197.6331,261.8273,98.2820,0,U,46507,999,31877,.36082E-3,.18068E-3,0
GREENCUBE (IO-117),2022-080E,2026-07-06T07:51:42.766848,6.42583225,.0008965,70.1428,291.5893,285.5832,74.3838,0,U,53109,999,9329,0,-.3E-7,0
SITRO-AIS 5 (KATYS),2023-091L,2026-07-06T19:48:35.538048,15.29934163,.0011548,97.5046,251.9164,41.1166,319.0942,0,U,57176,999,16734,.30096E-3,.8662E-4,0
SITRO-AIS 6 (CHIRKIN),2023-091AC,2026-07-06T20:24:10.829376,15.26330776,.0012021,97.5054,250.9549,44.6792,315.5413,0,U,57192,999,16728,.31258E-3,.806E-4,0
SITRO-AIS 8 (ANOKHIN),2023-091AD,2026-07-06T19:22:57.091008,15.32702864,.0010382,97.5043,253.5680,37.2453,322.9506,0,U,57193,999,16745,.36638E-3,.11514E-3,0
SITRO-AIS 7 (FARTUSHNIY),2023-091AE,2026-07-06T19:00:09.455040,15.26007809,.0011976,97.5050,250.7110,45.9726,314.2496,0,U,57194,999,16726,.31904E-3,.8149E-4,0
SITRO-AIS 10 (BURDAEV),2023-091AK,2026-07-06T19:41:18.989088,15.39399544,.0005675,97.5067,258.8410,15.0859,345.0554,0,U,57199,999,16778,.40219E-3,.15669E-3,0
SITRO-AIS 9 (SHCHUKIN),2023-091AM,2026-07-06T20:28:29.157600,15.38892968,.0005937,97.5065,258.5888,14.8916,345.2503,0,U,57201,999,16777,.40439E-3,.15497E-3,0
SITRO-AIS 12 (SMIRENNIY),2023-091AQ,2026-07-06T20:09:35.447040,15.39185085,.0005448,97.5079,259.0550,8.6611,351.4727,0,U,57204,999,16779,.39102E-3,.15123E-3,0
SITRO-AIS 11 (SHEFFER),2023-091AU,2026-07-06T20:20:59.234784,15.39624866,.0005354,97.5077,259.3222,8.1992,351.9340,0,U,57208,999,16781,.39703E-3,.15581E-3,0
SITRO-AIS 25,2024-039R,2026-07-06T20:56:12.914016,14.93614123,.0142311,95.3897,248.6202,259.0105,99.5085,0,U,59066,999,12766,.16662E-3,.211E-4,0
SITRO-AIS 26,2024-039S,2026-07-06T21:02:05.043264,14.93406047,.0142677,95.3897,248.5165,259.6134,98.8984,0,U,59067,999,12765,.1478E-3,.1858E-4,0
SITRO-AIS 27,2024-039T,2026-07-06T20:11:16.282752,14.93827409,.0141748,95.3897,248.7731,258.2534,100.2760,0,U,59068,999,12767,.21838E-3,.2789E-4,0
SITRO-AIS 28,2024-039U,2026-07-06T21:14:36.242016,14.93861941,.0141672,95.3899,248.8518,257.9642,100.5677,0,U,59071,999,12768,.15956E-3,.2029E-4,0
GRBBETA,2024-128C,2026-07-06T08:00:04.521888,15.06767391,.00381911,61.9891,149.0849,138.6902,221.7091,0,U,60237,999,10915,.27634718E-3,.3982E-4,0
OOV-CUBE (TUBSAT-30),2024-128F,2026-07-06T10:01:45.352128,15.02848993,.0042205,61.9939,158.5121,138.0070,222.4270,0,U,60240,999,10900,.16592E-3,.2062E-4,0
ROBUSTA-3A (MEDITERRANEE),2024-128J,2026-07-06T10:46:00.221088,15.11900302,.0039043,61.9857,140.1176,131.8917,228.5520,0,U,60243,999,10933,.35298E-3,.5961E-4,0
LASARSAT,2024-247Q,2026-07-05T23:04:40.365120,15.47577253,.00064314,44.9730,156.6246,98.3595,261.8025,0,U,62391,999,8622,.72466866E-3,.38027E-3,0
CROCUBE,2024-247T,2026-07-05T08:31:43.923072,15.49608608,.0006223,44.9708,157.0633,99.0627,261.0968,0,U,62394,999,8616,.11046E-2,.62671E-3,0
FORESAIL-1 PRIME,2025-276DS,2026-07-06T16:42:06.041664,15.18887591,.0003466,97.4189,260.6113,62.9239,297.2349,0,U,66778,999,3336,.21169E-3,.4348E-4,0
KNACKSAT-2,1998-067XZ,2026-07-06T10:19:34.257504,15.61755488,.00082597,51.6265,197.5608,296.8985,63.1164,0,U,67683,999,2328,.57854596E-3,.50889E-3,0
