CORVUS BC4              
1 43767U 18099K   26187.04240863  .00004869  00000+0  28197-3 0  9991
2 43767  97.4056 229.4712 0006552 301.1954  58.8634 15.12655290415255
M2 PATHFINDER           
1 45727U 20037E   26187.46466733  .00002408  00000+0  17505-3 0  9994
2 45727  97.8157  18.9135 0013202  88.8510 271.4228 15.04769609328397
NETSAT-4                
1 46504U 20068U   26187.56513735  .00015057  00000+0  32615-3 0  9991
2 46504  97.8608 197.3712 0003783 229.6760 130.4157 15.44544875318765
NETSAT-3                
1 46505U 20068V   26187.00259304  .00020739  00000+0  46612-3 0  9995
2 46505  97.8655 194.9565 0002975 257.5330 102.5584 15.43375304318584
NETSAT-1                
1 46506U 20068W   26187.56331852  .00010041  00000+0  29724-3 0  9996
2 46506  97.8753 189.6618 0002682 315.7020  44.4007 15.35106916318274
NETSAT-2                
1 46507U 20068X   26187.83601139  .00018068  00000+0  36082-3 0  9997
2 46507  97.8621 197.6331 0001373 261.8273  98.2820 15.46896368318771
GREENCUBE (IO-117)      
1 53109U 22080E   26187.32757832 -.00000003  00000+0  00000+0 0  9993
2 53109  70.1428 291.5893 0008965 285.5832  74.3838  6.42583225 93293
SITRO-AIS 5 (KATYS)     
1 57176U 23091L   26187.82541132  .00008662  00000+0  30096-3 0  9993
2 57176  97.5046 251.9164 0011548  41.1166 319.0942 15.29934163167347
SITRO-AIS 6 (CHIRKIN)   
1 57192U 23091AC  26187.85012534  .00008060  00000+0  31258-3 0  9996
2 57192  97.5054 250.9549 0012021  44.6792 315.5413 15.26330776167284
SITRO-AIS 8 (ANOKHIN)   
1 57193U 23091AD  26187.80760522  .00011514  00000+0  36638-3 0  9994
2 57193  97.5043 253.5680 0010382  37.2453 322.9506 15.32702864167450
SITRO-AIS 7 (FARTUSHNIY)
1 57194U 23091AE  26187.79177610  .00008149  00000+0  31904-3 0  9994
2 57194  97.5050 250.7110 0011976  45.9726 314.2496 15.26007809167266
SITRO-AIS 10 (BURDAEV)  
1 57199U 23091AK  26187.82035867  .00015669  00000+0  40219-3 0  9994
2 57199  97.5067 258.8410 0005675  15.0859 345.0554 15.39399544167783
SITRO-AIS 9 (SHCHUKIN)  
1 57201U 23091AM  26187.85311525  .00015497  00000+0  40439-3 0  9992
2 57201  97.5065 258.5888 0005937  14.8916 345.2503 15.38892968167775
SITRO-AIS 12 (SMIRENNIY)
1 57204U 23091AQ  26187.83999360  .00015123  00000+0  39102-3 0  9993
2 57204  97.5079 259.0550 0005448   8.6611 351.4727 15.39185085167790
SITRO-AIS 11 (SHEFFER)  
1 57208U 23091AU  26187.84790781  .00015581  00000+0  39703-3 0  9999
2 57208  97.5077 259.3222 0005354   8.1992 351.9340 15.39624866167818
SITRO-AIS 25            
1 59066U 24039R   26187.87237169  .00002110  00000+0  16662-3 0  9998
2 59066  95.3897 248.6202 0142311 259.0105  99.5085 14.93614123127669
SITRO-AIS 26            
1 59067U 24039S   26187.87644726  .00001858  00000+0  14780-3 0  9997
2 59067  95.3897 248.5165 0142677 259.6134  98.8984 14.93406047127653
SITRO-AIS 27            
1 59068U 24039T   26187.84116068  .00002789  00000+0  21838-3 0  9994
2 59068  95.3897 248.7731 0141748 258.2534 100.2760 14.93827409127673
SITRO-AIS 28            
1 59071U 24039U   26187.88514169  .00002029  00000+0  15956-3 0  9997
2 59071  95.3899 248.8518 0141672 257.9642 100.5677 14.93861941127685
GRBBETA                 
1 60237U 24128C   26187.33338567  .00003982  00000+0  27635-3 0  9994
2 60237  61.9891 149.0849 0038191 138.6902 221.7091 15.06767391109153
OOV-CUBE (TUBSAT-30)    
1 60240U 24128F   26187.41788602  .00002062  00000+0  16592-3 0  9994
2 60240  61.9939 158.5121 0042205 138.0070 222.4270 15.02848993109004
ROBUSTA-3A (MEDITERRAN*)
1 60243U 24128J   26187.44861367  .00005961  00000+0  35298-3 0  9995
2 60243  61.9857 140.1176 0039043 131.8917 228.5520 15.11900302109334
LASARSAT                
1 62391U 24247Q   26186.96157830  .00038027  00000+0  72467-3 0  9990
2 62391  44.9730 156.6246 0006431  98.3595 261.8025 15.47577253 86221
CROCUBE                 
1 62394U 24247T   26186.35536948  .00062671  00000+0  11046-2 0  9994
2 62394  44.9708 157.0633 0006223  99.0627 261.0968 15.49608608 86169
FORESAIL-1 PRIME        
1 66778U 25276DS  26187.69590326  .00004348  00000+0  21169-3 0  9990
2 66778  97.4189 260.6113 0003466  62.9239 297.2349 15.18887591 33367
KNACKSAT-2              
1 67683U 98067XZ  26187.43025761  .00050889  00000+0  57855-3 0  9994
2 67683  51.6265 197.5608 0008259 296.8985  63.1164 15.61755488 23280
